42959,IRIDIUM 119,2017,100.4,860.0,+,86.4,Active,1,LEO,USA,USA,Commercial/Government,Communications,Falcon,1 42959U 17061E   25095.81762248  .00000506  00000+0  17370-3 0  9994,2 42959  86.4034 207.9802 0002126  92.0902 268.0537 14.34217377392124,14.34217377,0.0002126,LEO
42960,IRIDIUM 107,2017,100.4,860.0,+,86.4,Active,1,LEO,USA,USA,Commercial/Government,Communications,Falcon,1 42960U 17061F   25095.83664954  .00000170  00000+0  53520-4 0  9998,2 42960  86.4029 207.9910 0001664  91.6032 268.5354 14.34219048392135,14.34219048,0.0001664,LEO
42961,IRIDIUM 132,2017,100.4,860.0,+,86.4,Active,1,LEO,USA,USA,Commercial/Government,Communications,Falcon,1 42961U 17061G   25095.84299333  .00000471  00000+0  16115-3 0  9997,2 42961  86.4030 207.9711 0001935  94.4476 265.6940 14.34217575392133,14.34217575,0.0001935,LEO
42962,IRIDIUM 136,2017,100.4,860.0,+,86.4,Active,1,LEO,USA,USA,Commercial/Government,Communications,Falcon,1 42962U 17061H   25095.80493269  .00000581  00000+0  20044-3 0  9996,2 42962  86.4030 207.9915 0001989  86.9967 273.1456 14.34222042392142,14.34222042,0.0001989,LEO
42963,IRIDIUM 139,2017,100.4,860.0,+,86.4,Active,1,LEO,USA,USA,Commercial/Government,Communications,Falcon,1 42963U 17061J   25096.16011950  .00000639  00000+0  22105-3 0  9994,2 42963  86.4031 207.8981 0001876  94.0211 266.1199 14.34216682392209,14.34216682,0.0001876,LEO
42964,IRIDIUM 125,2017,100.4,860.0,+,86.4,Active,1,LEO,USA,USA,Commercial/Government,Communications,Falcon,1 42964U 17061K   25095.86836344  .00000728  00000+0  25293-3 0  9993,2 42964  86.4032 208.0728 0002004  79.3288 280.8133 14.34218517392173,14.34218517,0.0002004,LEO
43070,IRIDIUM 135,2017,100.4,860.0,+,86.4,Active,1,LEO,USA,USA,Commercial/Government,Communications,Falcon,1 43070U 17083A   25096.19133354 -.00000008  00000+0 -10001-4 0  9999,2 43070  86.3984 144.7118 0002347  98.7283 261.4179 14.34217825381518,14.34217825,0.0002347,LEO
43071,IRIDIUM 138,2017,100.4,860.0,+,86.4,Active,1,LEO,USA,USA,Commercial/Government,Communications,Falcon,1 43071U 17083B   25096.21670394  .00000036  00000+0  56962-5 0  9999,2 43071  86.3969 144.3819 0002654  84.0803 276.0695 14.34217814381505,14.34217814,0.0002654,LEO
